OSCAR 7 (AO-7)          
1 07530U 74089B   22353.79772701 -.00000021  00000+0  15942-3 0  9995
2 07530 101.9288 334.4059 0012429  47.3013  21.3984 12.53659466200691
PHASE 3B (AO-10)        
1 14129U 83058B   22353.28533921 -.00000058  00000+0  00000+0 0  9991
2 14129  26.7359  65.8386 6030830 132.6376 296.9588  2.05871002269217
UOSAT 2 (UO-11)         
1 14781U 84021B   22353.69392670  .00001391  00000+0  17289-3 0  9996
2 14781  97.6373 332.9200 0009827  74.9844 285.2458 14.84047983 67510
LUSAT (LO-19)           
1 20442U 90005G   22353.67985579  .00000209  00000+0  93065-4 0  9994
2 20442  98.8207 321.6148 0011576 350.6606   9.4360 14.33126396719635
EYESAT A (AO-27)        
1 22825U 93061C   22353.83898470  .00000120  00000+0  64207-4 0  9995
2 22825  98.8670  28.6107 0007697 226.4993 133.5549 14.30219627524654
ITAMSAT (IO-26)         
1 22826U 93061D   22353.88701727  .00000131  00000+0  67933-4 0  9990
2 22826  98.8615  28.5287 0008434 211.8141 148.2532 14.30571000525174
RADIO ROSTO (RS-15)     
1 23439U 94085A   22353.93659869 -.00000039  00000+0  10000-3 0  9993
2 23439  64.8129 205.6082 0166583 240.9762 117.4382 11.27572964152407
JAS-2 (FO-29)           
1 24278U 96046B   22353.80764955  .00000025  00000+0  59058-4 0  9994
2 24278  98.5141 351.9646 0350618 162.1556 199.2266 13.53126296300675
TECHSAT 1B (GO-32)      
1 25397U 98043D   22353.74515672  .00000091  00000+0  59679-4 0  9991
2 25397  98.8440 304.9178 0000578 345.9318  14.1844 14.23796157269796
ISS (ZARYA)             
1 25544U 98067A   22353.88816203  .00011401  00000+0  20698-3 0  9995
2 25544  51.6436 136.6505 0003556 176.0581 287.8854 15.50064531373982
PCSAT (NO-44)           
1 26931U 01043C   22353.28034603  .00000214  00000+0  11313-3 0  9998
2 26931  67.0518 301.3045 0005255 274.1174  85.9327 14.30778758107843
SAUDISAT 1C (SO-50)     
1 27607U 02058C   22353.66198409  .00001660  00000+0  24553-3 0  9999
2 27607  64.5549  94.9982 0080656 259.3627  99.8385 14.76497605 75718
CUTE-1 (CO-55)          
1 27844U 03031E   22353.76831809  .00000354  00000+0  17819-3 0  9999
2 27844  98.6792 358.6744 0008833 287.3264  72.6947 14.22562854 10228
CUBESAT XI-IV (CO-57)   
1 27848U 03031J   22353.01590978  .00000293  00000+0  15226-3 0  9992
2 27848  98.6833 358.4094 0008857 306.1195  53.9162 14.22103745  9895
MOZHAYETS 4 (RS-22)     
1 27939U 03042A   22353.85856583  .00001041  00000+0  19156-3 0  9992
2 27939  98.2156 134.8643 0012320 348.3671  11.7247 14.67676397 28235
CUBESAT XI-V            
1 28895U 05043F   22353.60554582  .00001524  00000+0  29469-3 0  9998
2 28895  98.1301 122.4523 0015271 278.8568  81.0906 14.64739835914519
FALCONSAT-3             
1 30776U 07006E   22353.61836913  .00263083  00000+0  11747-2 0  9991
2 30776  35.4235 109.6231 0007223  62.2518 297.8955 15.82502825878575
CUTE-1.7+APD II (CO-65) 
1 32785U 08021C   22353.72104607  .00003806  00000+0  39573-3 0  9994
2 32785  97.6826 319.0390 0012216 347.2130  12.8777 14.90408661794070
DELFI-C3 (DO-64)        
1 32789U 08021G   22353.81892762  .00024452  00000+0  11609-2 0  9993
2 32789  97.3247  13.8654 0010540  45.4065 314.8028 15.19187227800012
SEEDS II (CO-66)        
1 32791U 08021J   22353.66700724  .00005550  00000+0  52677-3 0  9994
2 32791  97.6343 324.3024 0011048 296.8046  63.2044 14.93878061794830
YUBILEINY (RS-30)       
1 32953U 08025A   22353.89066622  .00000024  00000+0  10000-3 0  9990
2 32953  82.5047  68.6158 0019260 212.4276 147.5622 12.43116315661373
KKS-1 (KISEKI)          
1 33499U 09002H   22353.83642679  .00001180  00000+0  17766-3 0  9998
2 33499  98.1933 238.7083 0010269  82.5776 277.6599 14.76341810747599
SWISSCUBE               
1 35932U 09051B   22353.59348294  .00001077  00000+0  24954-3 0  9997
2 35932  98.5432 214.4926 0007073 191.0690 169.0353 14.57139271703058
BEESAT-1                
1 35933U 09051C   22353.89169047  .00000869  00000+0  20350-3 0  9992
2 35933  98.5367 216.2892 0005092 200.7576 159.3415 14.57121693703171
ITUPSAT1                
1 35935U 09051E   22353.88610725  .00000805  00000+0  19299-3 0  9997
2 35935  98.5467 216.2883 0007321 208.0974 151.9829 14.56211941702861
XIWANG-1 (HOPE-1)       
1 36122U 09072B   22353.33912893 -.00000013  00000+0  78144-4 0  9997
2 36122 100.2118 318.1126 0006883 277.4120  82.6211 13.16375342625131
JUGNU                   
1 37839U 11058B   22353.73008652  .00000453  00000+0  99302-4 0  9999
2 37839  19.9600 131.6328 0019005  39.7792 350.2585 14.12843948578375
SRMSAT                  
1 37841U 11058D   22353.86584921  .00000422  00000+0  86591-4 0  9996
2 37841  19.9705 214.1341 0011867 220.9474 238.6295 14.10804225577453
M-CUBED & EXP-1 PRIME   
1 37855U 11061F   22353.85501055  .00017142  00000+0  68029-3 0  9993
2 37855 101.7137 211.9670 0141661 225.2977 133.6633 15.16671014609292
STRAND-1                
1 39090U 13009E   22352.96206532  .00000294  00000+0  11722-3 0  9991
2 39090  98.3915 186.2127 0010133  82.6973 277.5365 14.35388618513863
SOMP                    
1 39134U 13015E   22353.83573702  .00032206  00000+0  91629-3 0  9992
2 39134  64.8571 170.7938 0028996 253.8385 105.9558 15.35576530535620
BEESAT-3                
1 39135U 13015F   22353.87003886  .00019036  00000+0  66965-3 0  9999
2 39135  64.8633 211.9178 0034631 254.6694 105.0610 15.28850128534831
BEESAT-2                
1 39136U 13015G   22353.92559456  .00017344  00000+0  64286-3 0  9999
2 39136  64.8727 221.1554 0025319 288.3425  71.4952 15.27450679534679
ZACUBE-1 (TSHEPISOSAT)  
1 39417U 13066B   22353.82043507  .00002323  00000+0  28308-3 0  9997
2 39417  97.6618 317.2841 0057305 155.2087 205.1901 14.83153443490598
GOMX-1                  
1 39430U 13066Q   22353.78676904  .00001592  00000+0  28850-3 0  9999
2 39430  97.7959 250.3047 0147837 179.7871 180.3426 14.60737245483343
CUBEBUG-2 (LO-74)       
1 39440U 13066AA  22353.83712376  .00002698  00000+0  36547-3 0  9990
2 39440  97.7511 303.9074 0076186 249.7575 109.5433 14.77762925488853
FUNCUBE-1 (AO-73)       
1 39444U 13066AE  22353.82782893  .00002885  00000+0  33975-3 0  9994
2 39444  97.6487 319.7336 0056257 142.2053 218.3134 14.84409538489606
UWE-3                   
1 39446U 13066AG  22353.33393387  .00002382  00000+0  30745-3 0  9992
2 39446  97.7116 309.7360 0066779 205.3374 154.4559 14.80346136487802
SPROUT                  
1 39770U 14029E   22353.80310935  .00011989  00000+0  11316-2 0  9997
2 39770  97.9559 112.4119 0008165 188.8831 171.2243 14.93878455465300
UNISAT-6                
1 40012U 14033C   22353.76695326  .00002513  00000+0  36765-3 0  9997
2 40012  97.6600 171.9304 0055513 278.9005  80.5923 14.75466347457305
DUCHIFAT-1              
1 40021U 14033M   22353.85725330  .00005071  00000+0  47584-3 0  9999
2 40021  98.0358 307.8172 0012474 141.8654 218.3451 14.94388495462378
QB50P1                  
1 40025U 14033R   22353.82578787  .00003426  00000+0  34731-3 0  9994
2 40025  97.9783 292.9303 0012043 159.8363 200.3333 14.91533449461388
NUDT-PHONESAT           
1 40900U 15049B   22353.98164557  .00069429  00000+0  12342-2 0  9995
2 40900  97.3845  14.3043 0007047 356.1799  39.9442 15.49913111403197
ZDPS 2A                 
1 40901U 15049C   22353.60515438  .00021846  00000+0  77969-3 0  9991
2 40901  97.4562   2.0125 0012274  57.1140 303.1279 15.28815429401693
ZDPS 2B                 
1 40902U 15049D   22354.00266900  .00020271  00000+0  71399-3 0  9996
2 40902  97.4661   0.3862 0012364  52.1643  33.2892 15.29261393401739
XW-2A                   
1 40903U 15049E   22353.82528765  .00051990  00000+0  53015-3 0  9993
2 40903  97.1528  53.5518 0008139 141.4224 330.2368 15.64906775408126
KAITUO 1A               
1 40904U 15049F   22353.83808050  .00005743  00000+0  26864-3 0  9990
2 40904  97.4988 354.8677 0014713  84.3663  36.6995 15.20063797401003
2015-049G               
1 40905U 15049G   22353.85611409  .00005247  00000+0  26130-3 0  9998
2 40905  97.5209 352.0943 0016206  88.9145  28.3951 15.17903283400728
XW-2C                   
1 40906U 15049H   22353.84775642  .00008450  00000+0  37952-3 0  9991
2 40906  97.4965 356.0757 0014857  73.0757  48.6328 15.21314249401084
XW-2D                   
1 40907U 15049J   22353.83973558  .00009905  00000+0  43156-3 0  9996
2 40907  97.4950 356.2440 0014019  68.8937  52.3648 15.22312969401144
LILACSAT-2              
1 40908U 15049K   22354.05248120  .00004700  00000+0  24018-3 0  9996
2 40908  97.5231 353.0109 0016538  92.4165 340.1410 15.17045006400614
XW-2E                   
1 40909U 15049L   22353.99217179  .00016383  00000+0  60715-3 0  9993
2 40909  97.4632   1.4505 0012622  46.2918   9.8191 15.27635060401696
XW-2F                   
1 40910U 15049M   22353.86617078  .00016306  00000+0  61445-3 0  9999
2 40910  97.4717   0.5078 0013481  48.1400  71.8434 15.27074517401433
XW-2B                   
1 40911U 15049N   22353.87954117  .00009787  00000+0  42822-3 0  9992
2 40911  97.4933 356.8166 0014152  70.1493  48.6138 15.22170972401038
KAITUO 1B               
1 40912U 15049P   22353.85624021  .00019328  00000+0  64931-3 0  9996
2 40912  97.4311   4.8603 0012085  14.2166 108.9666 15.30813995402062
TIANWANG 1A (TW-1A)     
1 40928U 15051D   22353.88551248  .00671821  21691-3  11011-2 0  9994
2 40928  97.0058  17.8997 0004769  87.5128  36.2028 16.03259571407362
LAPAN-A2                
1 40931U 15052B   22353.35097655  .00001258  00000+0  85335-4 0  9998
2 40931   5.9984 289.9962 0013469 268.4992  91.3867 14.76947627390720
E-ST@R-II               
1 41459U 16025D   22353.73546787  .00015364  00000+0  59262-3 0  9994
2 41459  98.1906 173.4196 0132151 358.9612   1.1284 15.18572011365568
AAUSAT 4                
1 41460U 16025E   22353.80467119  .00032648  00000+0  10055-2 0  9995
2 41460  98.1760 181.7590 0105814 327.5283  44.1938 15.28156241366153
